start=new Date('2021-12-28T00:00:00.000Z').valueOf();
sats=[{"RCS_SIZE":"LARGE","ECCENTRICITY":"0.00013500","BSTAR":"0.00006113400000","TIME_SYSTEM":"UTC","MEAN_MOTION_DDOT":"0.0000000000000","ARG_OF_PERICENTER":"83.3010","NORAD_CAT_ID":"47390","SEMIMAJOR_AXIS":"6925.367","MEAN_ANOMALY":"276.8132","EPOCH":"2021-12-27T16:52:17.778720","OBJECT_TYPE":"PAYLOAD","PERIAPSIS":"546.297","TLE_LINE1":"1 47390U 21005AT  21361.70298355  .00000629  00000-0  61134-4 0  9999","RA_OF_ASC_NODE":"103.4557","REV_AT_EPOCH":"5198","CENTER_NAME":"EARTH","COUNTRY_CODE":"US","INCLINATION":"53.0554","EPHEMERIS_TYPE":"0","APOAPSIS":"548.167","OBJECT_NAME":"STARLINK-2111","OBJECT_ID":"2021-005AT","MEAN_MOTION":"15.06394107","MEAN_ELEMENT_THEORY":"SGP4","DECAY_DATE":null,"REF_FRAME":"TEME","FILE":"3253114","CLASSIFICATION_TYPE":"U","PERIOD":"95.593","ELEMENT_SET_NO":"999","SITE":"AFETR","MEAN_MOTION_DOT":"0.00000629","TLE_LINE2":"2 47390  53.0554 103.4557 0001350  83.3010 276.8132 15.06394107 51984","LAUNCH_DATE":"2021-01-20","GP_ID":"192604481"},{"FILE":"3253114","REF_FRAME":"TEME","MEAN_ELEMENT_THEORY":"SGP4","DECAY_DATE":null,"LAUNCH_DATE":"2021-01-20","GP_ID":"192603738","SITE":"AFETR","ELEMENT_SET_NO":"999","CLASSIFICATION_TYPE":"U","PERIOD":"95.593","TLE_LINE2":"2 47391  53.0542  73.4099 0001079  79.3563 280.7547 15.06389006 52409","MEAN_MOTION_DOT":"-0.00001022","SEMIMAJOR_AXIS":"6925.382","MEAN_ANOMALY":"280.7547","NORAD_CAT_ID":"47391","OBJECT_TYPE":"PAYLOAD","PERIAPSIS":"546.500","EPOCH":"2021-12-27T17:05:31.496640","BSTAR":"-0.00004974300000","TIME_SYSTEM":"UTC","ECCENTRICITY":"0.00010790","RCS_SIZE":"LARGE","ARG_OF_PERICENTER":"79.3563","MEAN_MOTION_DDOT":"0.0000000000000","OBJECT_NAME":"STARLINK-2112","OBJECT_ID":"2021-005AU","MEAN_MOTION":"15.06389006","REV_AT_EPOCH":"5240","TLE_LINE1":"1 47391U 21005AU  21361.71217010 -.00001022  00000-0 -49743-4 0  9992","RA_OF_ASC_NODE":"73.4099","EPHEMERIS_TYPE":"0","APOAPSIS":"547.995","INCLINATION":"53.0542","COUNTRY_CODE":"US","CENTER_NAME":"EARTH"},{"FILE":"3253114","DECAY_DATE":null,"MEAN_ELEMENT_THEORY":"SGP4","REF_FRAME":"TEME","GP_ID":"192603986","LAUNCH_DATE":"2021-01-20","TLE_LINE2":"2 47392  53.0551  73.7045 0001283  92.6051 267.5084 15.06410849 52398","MEAN_MOTION_DOT":"0.00006161","ELEMENT_SET_NO":"999","SITE":"AFETR","PERIOD":"95.591","CLASSIFICATION_TYPE":"U","PERIAPSIS":"546.292","OBJECT_TYPE":"PAYLOAD","EPOCH":"2021-12-27T15:31:20.437248","SEMIMAJOR_AXIS":"6925.315","NORAD_CAT_ID":"47392","MEAN_ANOMALY":"267.5084","MEAN_MOTION_DDOT":"0.0000000000000","ARG_OF_PERICENTER":"92.6051","TIME_SYSTEM":"UTC","BSTAR":"0.00043198000000","RCS_SIZE":"LARGE","ECCENTRICITY":"0.00012830","OBJECT_ID":"2021-005AV","MEAN_MOTION":"15.06410849","OBJECT_NAME":"STARLINK-2113","APOAPSIS":"548.069","EPHEMERIS_TYPE":"0","CENTER_NAME":"EARTH","COUNTRY_CODE":"US","INCLINATION":"53.0551","TLE_LINE1":"1 47392U 21005AV  21361.64676432  .00006161  00000-0  43198-3 0  9996","REV_AT_EPOCH":"5239","RA_OF_ASC_NODE":"73.7045"},{"OBJECT_NAME":"STARLINK-2114","MEAN_MOTION":"15.06387258","OBJECT_ID":"2021-005AW","REV_AT_EPOCH":"5272","TLE_LINE1":"1 47393U 21005AW  21361.50622731  .00002391  00000-0  17940-3 0  9992","RA_OF_ASC_NODE":"49.3452","EPHEMERIS_TYPE":"0","APOAPSIS":"548.262","INCLINATION":"53.0546","CENTER_NAME":"EARTH","COUNTRY_CODE":"US","SEMIMAJOR_AXIS":"6925.388","NORAD_CAT_ID":"47393","MEAN_ANOMALY":"280.5331","OBJECT_TYPE":"PAYLOAD","PERIAPSIS":"546.244","EPOCH":"2021-12-27T12:08:58.039584","TIME_SYSTEM":"UTC","BSTAR":"0.00017940000000","ECCENTRICITY":"0.00014570","RCS_SIZE":"LARGE","ARG_OF_PERICENTER":"79.5822","MEAN_MOTION_DDOT":"0.0000000000000","LAUNCH_DATE":"2021-01-20","GP_ID":"192568744","ELEMENT_SET_NO":"999","SITE":"AFETR","CLASSIFICATION_TYPE":"U","PERIOD":"95.593","TLE_LINE2":"2 47393  53.0546  49.3452 0001457  79.5822 280.5331 15.06387258 52721","MEAN_MOTION_DOT":"0.00002391","FILE":"3252683","REF_FRAME":"TEME","DECAY_DATE":null,"MEAN_ELEMENT_THEORY":"SGP4"},{"LAUNCH_DATE":"2021-01-20","GP_ID":"192604982","CLASSIFICATION_TYPE":"U","PERIOD":"95.592","ELEMENT_SET_NO":"999","SITE":"AFETR","MEAN_MOTION_DOT":"0.00002763","TLE_LINE2":"2 47394  53.0531  68.9745 0001130  82.1393 277.9724 15.06400053 52465","MEAN_ELEMENT_THEORY":"SGP4","DECAY_DATE":null,"REF_FRAME":"TEME","FILE":"3253114","OBJECT_NAME":"STARLINK-2115","OBJECT_ID":"2021-005AX","MEAN_MOTION":"15.06400053","TLE_LINE1":"1 47394U 21005AX  21361.58915556  .00002763  00000-0  20430-3 0  9992","RA_OF_ASC_NODE":"68.9745","REV_AT_EPOCH":"5246","COUNTRY_CODE":"US","CENTER_NAME":"EARTH","INCLINATION":"53.0531","EPHEMERIS_TYPE":"0","APOAPSIS":"547.996","NORAD_CAT_ID":"47394","SEMIMAJOR_AXIS":"6925.348","MEAN_ANOMALY":"277.9724","EPOCH":"2021-12-27T14:08:23.040384","PERIAPSIS":"546.431","OBJECT_TYPE":"PAYLOAD","RCS_SIZE":"LARGE","ECCENTRICITY":"0.00011300","BSTAR":"0.00020430000000","TIME_SYSTEM":"UTC","ARG_OF_PERICENTER":"82.1393","MEAN_MOTION_DDOT":"0.0000000000000"},{"TLE_LINE1":"1 47395U 21005AY  21361.55923211  .00001640  00000-0  12897-3 0  9998","RA_OF_ASC_NODE":"64.1079","REV_AT_EPOCH":"5252","APOAPSIS":"548.023","EPHEMERIS_TYPE":"0","COUNTRY_CODE":"US","CENTER_NAME":"EARTH","INCLINATION":"53.0564","OBJECT_NAME":"STARLINK-2117","OBJECT_ID":"2021-005AY","MEAN_MOTION":"15.06396320","BSTAR":"0.00012897000000","TIME_SYSTEM":"UTC","RCS_SIZE":"LARGE","ECCENTRICITY":"0.00011530","ARG_OF_PERICENTER":"88.4894","MEAN_MOTION_DDOT":"0.0000000000000","SEMIMAJOR_AXIS":"6925.360","NORAD_CAT_ID":"47395","MEAN_ANOMALY":"271.6227","OBJECT_TYPE":"PAYLOAD","PERIAPSIS":"546.426","EPOCH":"2021-12-27T13:25:17.654304","SITE":"AFETR","ELEMENT_SET_NO":"999","CLASSIFICATION_TYPE":"U","PERIOD":"95.592","TLE_LINE2":"2 47395  53.0564  64.1079 0001153  88.4894 271.6227 15.06396320 52527","MEAN_MOTION_DOT":"0.00001640","LAUNCH_DATE":"2021-01-20","GP_ID":"192575637","FILE":"3252834","DECAY_DATE":null,"MEAN_ELEMENT_THEORY":"SGP4","REF_FRAME":"TEME"},{"REF_FRAME":"TEME","MEAN_ELEMENT_THEORY":"SGP4","DECAY_DATE":null,"FILE":"3252683","MEAN_MOTION_DOT":"0.00002573","TLE_LINE2":"2 47396  53.0561  74.5152 0001266  82.4042 277.7090 15.06398367 52377","CLASSIFICATION_TYPE":"U","PERIOD":"95.592","ELEMENT_SET_NO":"999","SITE":"AFETR","GP_ID":"192569995","LAUNCH_DATE":"2021-01-20","ARG_OF_PERICENTER":"82.4042","MEAN_MOTION_DDOT":"0.0000000000000","ECCENTRICITY":"0.00012660","RCS_SIZE":"LARGE","TIME_SYSTEM":"UTC","BSTAR":"0.00019159000000","EPOCH":"2021-12-27T11:16:34.634784","OBJECT_TYPE":"PAYLOAD","PERIAPSIS":"546.342","MEAN_ANOMALY":"277.7090","SEMIMAJOR_AXIS":"6925.354","NORAD_CAT_ID":"47396","INCLINATION":"53.0561","COUNTRY_CODE":"US","CENTER_NAME":"EARTH","EPHEMERIS_TYPE":"0","APOAPSIS":"548.095","REV_AT_EPOCH":"5237","TLE_LINE1":"1 47396U 21005AZ  21361.46984531  .00002573  00000-0  19159-3 0  9995","RA_OF_ASC_NODE":"74.5152","OBJECT_ID":"2021-005AZ","MEAN_MOTION":"15.06398367","OBJECT_NAME":"STARLINK-2118"},{"PERIAPSIS":"546.228","OBJECT_TYPE":"PAYLOAD","EPOCH":"2021-12-27T19:10:17.365440","NORAD_CAT_ID":"47397","SEMIMAJOR_AXIS":"6925.381","MEAN_ANOMALY":"278.9714","MEAN_MOTION_DDOT":"0.0000000000000","ARG_OF_PERICENTER":"81.1441","BSTAR":"0.00007350000000","TIME_SYSTEM":"UTC","RCS_SIZE":"LARGE","ECCENTRICITY":"0.00014700","MEAN_MOTION":"15.06389398","OBJECT_ID":"2021-005BA","OBJECT_NAME":"STARLINK-2119","EPHEMERIS_TYPE":"0","APOAPSIS":"548.264","CENTER_NAME":"EARTH","COUNTRY_CODE":"US","INCLINATION":"53.0526","RA_OF_ASC_NODE":"103.0382","TLE_LINE1":"1 47397U 21005BA  21361.79881210  .00000813  00000-0  73500-4 0  9998","REV_AT_EPOCH":"5200","FILE":"3253114","DECAY_DATE":null,"MEAN_ELEMENT_THEORY":"SGP4","REF_FRAME":"TEME","GP_ID":"192604735","LAUNCH_DATE":"2021-01-20","TLE_LINE2":"2 47397  53.0526 103.0382 0001470  81.1441 278.9714 15.06389398 52008","MEAN_MOTION_DOT":"0.00000813","SITE":"AFETR","ELEMENT_SET_NO":"999","PERIOD":"95.593","CLASSIFICATION_TYPE":"U"},{"FILE":"3253114","MEAN_ELEMENT_THEORY":"SGP4","DECAY_DATE":null,"REF_FRAME":"TEME","SITE":"AFETR","ELEMENT_SET_NO":"999","PERIOD":"95.592","CLASSIFICATION_TYPE":"U","TLE_LINE2":"2 47398  53.0535  73.4460 0001257 100.2355 259.8776 15.06396155 52405","MEAN_MOTION_DOT":"0.00000519","LAUNCH_DATE":"2021-01-20","GP_ID":"192604482","BSTAR":"0.00005373300000","TIME_SYSTEM":"UTC","RCS_SIZE":"LARGE","ECCENTRICITY":"0.00012570","MEAN_MOTION_DDOT":"0.0000000000000","ARG_OF_PERICENTER":"100.2355","SEMIMAJOR_AXIS":"6925.360","NORAD_CAT_ID":"47398","MEAN_ANOMALY":"259.8776","OBJECT_TYPE":"PAYLOAD","PERIAPSIS":"546.355","EPOCH":"2021-12-27T16:56:16.518336","RA_OF_ASC_NODE":"73.4460","TLE_LINE1":"1 47398U 21005BB  21361.70574674  .00000519  00000-0  53733-4 0  9992","REV_AT_EPOCH":"5240","APOAPSIS":"548.096","EPHEMERIS_TYPE":"0","CENTER_NAME":"EARTH","COUNTRY_CODE":"US","INCLINATION":"53.0535","OBJECT_NAME":"STARLINK-2120","OBJECT_ID":"2021-005BB","MEAN_MOTION":"15.06396155"},{"ARG_OF_PERICENTER":"89.4139","MEAN_MOTION_DDOT":"0.0000000000000","RCS_SIZE":"LARGE","ECCENTRICITY":"0.00012410","BSTAR":"0.00005567300000","TIME_SYSTEM":"UTC","EPOCH":"2021-12-27T12:28:12.330624","OBJECT_TYPE":"PAYLOAD","PERIAPSIS":"546.386","NORAD_CAT_ID":"47399","SEMIMAJOR_AXIS":"6925.380","MEAN_ANOMALY":"270.6992","CENTER_NAME":"EARTH","COUNTRY_CODE":"US","INCLINATION":"53.0564","EPHEMERIS_TYPE":"0","APOAPSIS":"548.105","TLE_LINE1":"1 47399U 21005BC  21361.51958716  .00000548  00000-0  55673-4 0  9992","RA_OF_ASC_NODE":"84.2856","REV_AT_EPOCH":"5223","OBJECT_ID":"2021-005BC","MEAN_MOTION":"15.06389640","OBJECT_NAME":"STARLINK-2121","MEAN_ELEMENT_THEORY":"SGP4","DECAY_DATE":null,"REF_FRAME":"TEME","FILE":"3252683","MEAN_MOTION_DOT":"0.00000548","TLE_LINE2":"2 47399  53.0564  84.2856 0001241  89.4139 270.6992 15.06389640 52231","CLASSIFICATION_TYPE":"U","PERIOD":"95.593","ELEMENT_SET_NO":"999","SITE":"AFETR","GP_ID":"192569746","LAUNCH_DATE":"2021-01-20"}];
